STARLINK-31237          
1 58855U 24019C   24199.82645177 -.00005524  00000+0 -20142-3 0  9991
2 58855  43.0052  31.2667 0002042 281.6081  78.4541 15.25916011 27409
STARLINK-31244          
1 58856U 24019D   24199.65043923 -.00001225  00000+0 -37000-4 0  9990
2 58856  43.0023  32.5014 0001494 258.0838 101.9846 15.25896846 27375
STARLINK-31216          
1 58857U 24019E   24199.98889364  .00062534  00000+0  23774-2 0  9993
2 58857  43.0030  29.8813 0001728 269.5417  90.5236 15.25948538 27271
STARLINK-31226          
1 58858U 24019F   24199.64139038 -.00002332  00000+0 -79367-4 0  9996
2 58858  43.0024  32.4334 0001503 263.2848  96.7832 15.25899169 27379
STARLINK-31197          
1 58859U 24019G   24199.85584934  .00004544  00000+0  18338-3 0  9994
2 58859  43.0035  31.4787 0001508 256.8596 103.2087 15.25925346 27403
STARLINK-31213          
1 58860U 24019H   24199.86943007  .00041036  00000+0  15687-2 0  9997
2 58860  43.0007  31.5886 0001663 269.9782  90.0878 15.25934421 27404
STARLINK-31199          
1 58861U 24019J   24199.51725444 -.00000345  00000+0 -33554-5 0  9999
2 58861  42.9945  33.2208 0000891  48.8094 311.2834 15.25907675 27358
STARLINK-31200          
1 58862U 24019K   24200.22145581  .00000007  00000+0  10105-4 0  9998
2 58862  43.0013  29.0498 0001362 287.9839  72.0864 15.25916921 27469
STARLINK-31149          
1 58863U 24019L   24200.01391044  .00006413  00000+0  25468-3 0  9997
2 58863  43.0016  30.9489 0001813 265.1563  94.9081 15.25925576 27423
STARLINK-31242          
1 58864U 24019M   24199.85358615  .00003415  00000+0  14029-3 0  9994
2 58864  43.0029  31.4549 0001306 261.3072  98.7631 15.25921805 27403
STARLINK-31223          
1 58865U 24019N   24200.21695088 -.00008636  00000+0 -32104-3 0  9992
2 58865  43.0017  29.0258 0001081 262.4852  97.5877 15.25873878 27303
STARLINK-31219          
1 58866U 24019P   24200.00260805  .00037508  00000+0  14352-2 0  9997
2 58866  43.0003  30.8721 0001669 267.5365  92.5295 15.25937782 27181
STARLINK-31198          
1 58867U 24019Q   24199.97094274  .00003188  00000+0  13169-3 0  9999
2 58867  43.0019  30.5902 0000978 274.6786  85.3953 15.25899993 27165
STARLINK-31196          
1 58868U 24019R   24199.90773875  .00002572  00000+0  10810-3 0  9990
2 58868  43.0007  30.9910 0001205 285.7671  74.3048 15.25918127 27395
STARLINK-31203          
1 58869U 24019S   24199.85920391  .00039516  00000+0  15126-2 0  9994
2 58869  43.0007  26.3345 0001656 280.1428  79.9236 15.25905390 27462
STARLINK-31201          
1 58870U 24019T   24199.87847788  .00001818  00000+0  79316-4 0  9993
2 58870  43.0009  31.6614 0001632 277.7468  82.3198 15.25907938 27380
STARLINK-31214          
1 58871U 24019U   24199.93260694  .00000924  00000+0  45126-4 0  9995
2 58871  43.0026  31.2022 0002158 257.0530 103.0080 15.25934742 27209
