[{"OBJECT_NAME":"STARLINK-31237","OBJECT_ID":"2024-019C","EPOCH":"2024-07-17T19:50:05.432928","MEAN_MOTION":15.25916011,"ECCENTRICITY":0.0002042,"INCLINATION":43.0052,"RA_OF_ASC_NODE":31.2667,"ARG_OF_PERICENTER":281.6081,"MEAN_ANOMALY":78.4541,"EPHEMERIS_TYPE":0,"CLASSIFICATION_TYPE":"U","NORAD_CAT_ID":58855,"ELEMENT_SET_NO":999,"REV_AT_EPOCH":2740,"BSTAR":-0.00020142,"MEAN_MOTION_DOT":-5.524e-5,"MEAN_MOTION_DDOT":0},{"OBJECT_NAME":"STARLINK-31244","OBJECT_ID":"2024-019D","EPOCH":"2024-07-17T15:36:37.949472","MEAN_MOTION":15.25896846,"ECCENTRICITY":0.0001494,"INCLINATION":43.0023,"RA_OF_ASC_NODE":32.5014,"ARG_OF_PERICENTER":258.0838,"MEAN_ANOMALY":101.9846,"EPHEMERIS_TYPE":0,"CLASSIFICATION_TYPE":"U","NORAD_CAT_ID":58856,"ELEMENT_SET_NO":999,"REV_AT_EPOCH":2737,"BSTAR":-3.7e-5,"MEAN_MOTION_DOT":-1.225e-5,"MEAN_MOTION_DDOT":0},{"OBJECT_NAME":"STARLINK-31216","OBJECT_ID":"2024-019E","EPOCH":"2024-07-17T23:44:00.410496","MEAN_MOTION":15.25948538,"ECCENTRICITY":0.0001728,"INCLINATION":43.003,"RA_OF_ASC_NODE":29.8813,"ARG_OF_PERICENTER":269.5417,"MEAN_ANOMALY":90.5236,"EPHEMERIS_TYPE":0,"CLASSIFICATION_TYPE":"U","NORAD_CAT_ID":58857,"ELEMENT_SET_NO":999,"REV_AT_EPOCH":2727,"BSTAR":0.0023774,"MEAN_MOTION_DOT":0.00062534,"MEAN_MOTION_DDOT":0},{"OBJECT_NAME":"STARLINK-31226","OBJECT_ID":"2024-019F","EPOCH":"2024-07-17T15:23:36.128832","MEAN_MOTION":15.25899169,"ECCENTRICITY":0.0001503,"INCLINATION":43.0024,"RA_OF_ASC_NODE":32.4334,"ARG_OF_PERICENTER":263.2848,"MEAN_ANOMALY":96.7832,"EPHEMERIS_TYPE":0,"CLASSIFICATION_TYPE":"U","NORAD_CAT_ID":58858,"ELEMENT_SET_NO":999,"REV_AT_EPOCH":2737,"BSTAR":-7.9367e-5,"MEAN_MOTION_DOT":-2.332e-5,"MEAN_MOTION_DDOT":0},{"OBJECT_NAME":"STARLINK-31197","OBJECT_ID":"2024-019G","EPOCH":"2024-07-17T20:32:25.382976","MEAN_MOTION":15.25925346,"ECCENTRICITY":0.0001508,"INCLINATION":43.0035,"RA_OF_ASC_NODE":31.4787,"ARG_OF_PERICENTER":256.8596,"MEAN_ANOMALY":103.2087,"EPHEMERIS_TYPE":0,"CLASSIFICATION_TYPE":"U","NORAD_CAT_ID":58859,"ELEMENT_SET_NO":999,"REV_AT_EPOCH":2740,"BSTAR":0.00018338,"MEAN_MOTION_DOT":4.544e-5,"MEAN_MOTION_DDOT":0},{"OBJECT_NAME":"STARLINK-31213","OBJECT_ID":"2024-019H","EPOCH":"2024-07-17T20:51:58.758048","MEAN_MOTION":15.25934421,"ECCENTRICITY":0.0001663,"INCLINATION":43.0007,"RA_OF_ASC_NODE":31.5886,"ARG_OF_PERICENTER":269.9782,"MEAN_ANOMALY":90.0878,"EPHEMERIS_TYPE":0,"CLASSIFICATION_TYPE":"U","NORAD_CAT_ID":58860,"ELEMENT_SET_NO":999,"REV_AT_EPOCH":2740,"BSTAR":0.0015687,"MEAN_MOTION_DOT":0.00041036,"MEAN_MOTION_DDOT":0},{"OBJECT_NAME":"STARLINK-31199","OBJECT_ID":"2024-019J","EPOCH":"2024-07-17T12:24:50.783616","MEAN_MOTION":15.25907675,"ECCENTRICITY":8.91e-5,"INCLINATION":42.9945,"RA_OF_ASC_NODE":33.2208,"ARG_OF_PERICENTER":48.8094,"MEAN_ANOMALY":311.2834,"EPHEMERIS_TYPE":0,"CLASSIFICATION_TYPE":"U","NORAD_CAT_ID":58861,"ELEMENT_SET_NO":999,"REV_AT_EPOCH":2735,"BSTAR":-3.3554e-6,"MEAN_MOTION_DOT":-3.45e-6,"MEAN_MOTION_DDOT":0},{"OBJECT_NAME":"STARLINK-31200","OBJECT_ID":"2024-019K","EPOCH":"2024-07-18T05:18:53.781984","MEAN_MOTION":15.25916921,"ECCENTRICITY":0.0001362,"INCLINATION":43.0013,"RA_OF_ASC_NODE":29.0498,"ARG_OF_PERICENTER":287.9839,"MEAN_ANOMALY":72.0864,"EPHEMERIS_TYPE":0,"CLASSIFICATION_TYPE":"U","NORAD_CAT_ID":58862,"ELEMENT_SET_NO":999,"REV_AT_EPOCH":2746,"BSTAR":1.0105e-5,"MEAN_MOTION_DOT":7.0e-8,"MEAN_MOTION_DDOT":0},{"OBJECT_NAME":"STARLINK-31149","OBJECT_ID":"2024-019L","EPOCH":"2024-07-18T00:20:01.862016","MEAN_MOTION":15.25925576,"ECCENTRICITY":0.0001813,"INCLINATION":43.0016,"RA_OF_ASC_NODE":30.9489,"ARG_OF_PERICENTER":265.1563,"MEAN_ANOMALY":94.9081,"EPHEMERIS_TYPE":0,"CLASSIFICATION_TYPE":"U","NORAD_CAT_ID":58863,"ELEMENT_SET_NO":999,"REV_AT_EPOCH":2742,"BSTAR":0.00025468,"MEAN_MOTION_DOT":6.413e-5,"MEAN_MOTION_DDOT":0},{"OBJECT_NAME":"STARLINK-31242","OBJECT_ID":"2024-019M","EPOCH":"2024-07-17T20:29:09.843360","MEAN_MOTION":15.25921805,"ECCENTRICITY":0.0001306,"INCLINATION":43.0029,"RA_OF_ASC_NODE":31.4549,"ARG_OF_PERICENTER":261.3072,"MEAN_ANOMALY":98.7631,"EPHEMERIS_TYPE":0,"CLASSIFICATION_TYPE":"U","NORAD_CAT_ID":58864,"ELEMENT_SET_NO":999,"REV_AT_EPOCH":2740,"BSTAR":0.00014029,"MEAN_MOTION_DOT":3.415e-5,"MEAN_MOTION_DDOT":0},{"OBJECT_NAME":"STARLINK-31223","OBJECT_ID":"2024-019N","EPOCH":"2024-07-18T05:12:24.556032","MEAN_MOTION":15.25873878,"ECCENTRICITY":0.0001081,"INCLINATION":43.0017,"RA_OF_ASC_NODE":29.0258,"ARG_OF_PERICENTER":262.4852,"MEAN_ANOMALY":97.5877,"EPHEMERIS_TYPE":0,"CLASSIFICATION_TYPE":"U","NORAD_CAT_ID":58865,"ELEMENT_SET_NO":999,"REV_AT_EPOCH":2730,"BSTAR":-0.00032104,"MEAN_MOTION_DOT":-8.636e-5,"MEAN_MOTION_DDOT":0},{"OBJECT_NAME":"STARLINK-31219","OBJECT_ID":"2024-019P","EPOCH":"2024-07-18T00:03:45.335520","MEAN_MOTION":15.25937782,"ECCENTRICITY":0.0001669,"INCLINATION":43.0003,"RA_OF_ASC_NODE":30.8721,"ARG_OF_PERICENTER":267.5365,"MEAN_ANOMALY":92.5295,"EPHEMERIS_TYPE":0,"CLASSIFICATION_TYPE":"U","NORAD_CAT_ID":58866,"ELEMENT_SET_NO":999,"REV_AT_EPOCH":2718,"BSTAR":0.0014352,"MEAN_MOTION_DOT":0.00037508,"MEAN_MOTION_DDOT":0},{"OBJECT_NAME":"STARLINK-31198","OBJECT_ID":"2024-019Q","EPOCH":"2024-07-17T23:18:09.452736","MEAN_MOTION":15.25899993,"ECCENTRICITY":9.78e-5,"INCLINATION":43.0019,"RA_OF_ASC_NODE":30.5902,"ARG_OF_PERICENTER":274.6786,"MEAN_ANOMALY":85.3953,"EPHEMERIS_TYPE":0,"CLASSIFICATION_TYPE":"U","NORAD_CAT_ID":58867,"ELEMENT_SET_NO":999,"REV_AT_EPOCH":2716,"BSTAR":0.00013169,"MEAN_MOTION_DOT":3.188e-5,"MEAN_MOTION_DDOT":0},{"OBJECT_NAME":"STARLINK-31196","OBJECT_ID":"2024-019R","EPOCH":"2024-07-17T21:47:08.628000","MEAN_MOTION":15.25918127,"ECCENTRICITY":0.0001205,"INCLINATION":43.0007,"RA_OF_ASC_NODE":30.991,"ARG_OF_PERICENTER":285.7671,"MEAN_ANOMALY":74.3048,"EPHEMERIS_TYPE":0,"CLASSIFICATION_TYPE":"U","NORAD_CAT_ID":58868,"ELEMENT_SET_NO":999,"REV_AT_EPOCH":2739,"BSTAR":0.0001081,"MEAN_MOTION_DOT":2.572e-5,"MEAN_MOTION_DDOT":0},{"OBJECT_NAME":"STARLINK-31203","OBJECT_ID":"2024-019S","EPOCH":"2024-07-17T20:37:15.217824","MEAN_MOTION":15.2590539,"ECCENTRICITY":0.0001656,"INCLINATION":43.0007,"RA_OF_ASC_NODE":26.3345,"ARG_OF_PERICENTER":280.1428,"MEAN_ANOMALY":79.9236,"EPHEMERIS_TYPE":0,"CLASSIFICATION_TYPE":"U","NORAD_CAT_ID":58869,"ELEMENT_SET_NO":999,"REV_AT_EPOCH":2746,"BSTAR":0.0015126,"MEAN_MOTION_DOT":0.00039516,"MEAN_MOTION_DDOT":0},{"OBJECT_NAME":"STARLINK-31201","OBJECT_ID":"2024-019T","EPOCH":"2024-07-17T21:05:00.488832","MEAN_MOTION":15.25907938,"ECCENTRICITY":0.0001632,"INCLINATION":43.0009,"RA_OF_ASC_NODE":31.6614,"ARG_OF_PERICENTER":277.7468,"MEAN_ANOMALY":82.3198,"EPHEMERIS_TYPE":0,"CLASSIFICATION_TYPE":"U","NORAD_CAT_ID":58870,"ELEMENT_SET_NO":999,"REV_AT_EPOCH":2738,"BSTAR":7.9316e-5,"MEAN_MOTION_DOT":1.818e-5,"MEAN_MOTION_DDOT":0},{"OBJECT_NAME":"STARLINK-31214","OBJECT_ID":"2024-019U","EPOCH":"2024-07-17T22:22:57.239616","MEAN_MOTION":15.25934742,"ECCENTRICITY":0.0002158,"INCLINATION":43.0026,"RA_OF_ASC_NODE":31.2022,"ARG_OF_PERICENTER":257.053,"MEAN_ANOMALY":103.008,"EPHEMERIS_TYPE":0,"CLASSIFICATION_TYPE":"U","NORAD_CAT_ID":58871,"ELEMENT_SET_NO":999,"REV_AT_EPOCH":2720,"BSTAR":4.5126e-5,"MEAN_MOTION_DOT":9.24e-6,"MEAN_MOTION_DDOT":0}]
